{"fetched_at":"2026-07-08T17:59:56.714Z","source":"https://celestrak.org/NORAD/elements/gp.php?NAME=NUSAT&FORMAT=JSON","constellation":"satellogic","records":[{"OBJECT_NAME":"NUSAT-47","OBJECT_ID":"2025-276CF","EPOCH":"2026-07-08T11:42:48.667392","CLASSIFICATION_TYPE":"U","MEAN_MOTION":15.20536625,"ECCENTRICITY":0.0000273,"INCLINATION":97.4181,"RA_OF_ASC_NODE":262.7604,"ARG_OF_PERICENTER":337.4878,"MEAN_ANOMALY":22.6346,"EPHEMERIS_TYPE":0,"NORAD_CAT_ID":66743,"ELEMENT_SET_NO":999,"REV_AT_EPOCH":3366,"BSTAR":0.00019762,"MEAN_MOTION_DOT":0.00004255,"MEAN_MOTION_DDOT":0},{"OBJECT_NAME":"NUSAT-53 (JANE GOODALL)","OBJECT_ID":"2026-067S","EPOCH":"2026-07-07T21:19:49.607040","CLASSIFICATION_TYPE":"U","MEAN_MOTION":15.18799165,"ECCENTRICITY":0.0001482,"INCLINATION":97.4567,"RA_OF_ASC_NODE":147.1046,"ARG_OF_PERICENTER":12.2826,"MEAN_ANOMALY":347.8444,"EPHEMERIS_TYPE":0,"NORAD_CAT_ID":68432,"ELEMENT_SET_NO":999,"REV_AT_EPOCH":1508,"BSTAR":0.00017684,"MEAN_MOTION_DOT":0.00003611,"MEAN_MOTION_DDOT":0},{"OBJECT_NAME":"NUSAT-54 (BRANCA MARQUES)","OBJECT_ID":"2026-067AC","EPOCH":"2026-07-08T08:06:20.160576","CLASSIFICATION_TYPE":"U","MEAN_MOTION":15.17952472,"ECCENTRICITY":0.0004622,"INCLINATION":97.4548,"RA_OF_ASC_NODE":147.401,"ARG_OF_PERICENTER":22.2626,"MEAN_ANOMALY":337.8807,"EPHEMERIS_TYPE":0,"NORAD_CAT_ID":68442,"ELEMENT_SET_NO":999,"REV_AT_EPOCH":1514,"BSTAR":0.00014875,"MEAN_MOTION_DOT":0.00002953,"MEAN_MOTION_DDOT":0}]}
