NUSAT-47                
1 66743U 25276CF  26189.48806328  .00004255  00000+0  19762-3 0  9996
2 66743  97.4181 262.7604 0000273 337.4878  22.6346 15.20536625 33663
NUSAT-53 (JANE GOODALL) 
1 68432U 26067S   26188.88876860  .00003611  00000+0  17684-3 0  9999
2 68432  97.4567 147.1046 0001482  12.2826 347.8444 15.18799165 15082
NUSAT-54 (BRANCA MARQU*)
1 68442U 26067AC  26189.33773334  .00002953  00000+0  14875-3 0  9990
2 68442  97.4548 147.4010 0004622  22.2626 337.8807 15.17952472 15144
